STARLINK-36612          
1 67580U 26016V   26050.12293732  .00509390  00000+0  24824-2 0  9990
2 67580  97.2821 109.7386 0002244 147.8467 212.2938 15.81041087  3881
STARLINK-36632          
1 67581U 26016W   26050.52180319  .00415315  00000+0  26373-2 0  9995
2 67581  97.2836 110.1153 0002202  30.9994 329.1401 15.75320153  3944
STARLINK-36609          
1 67582U 26016X   26050.60121022  .00211654  00000+0  13817-2 0  9990
2 67582  97.2840 110.1592 0001465  82.6668 277.4764 15.75244962  3950
STARLINK-36577          
1 67583U 26016Y   26050.12146212  .00214260  00000+0  10889-2 0  9998
2 67583  97.2825 109.7403 0000772 346.8280  13.2968 15.80879015  3887
STARLINK-36419          
1 67584U 26016Z   26050.58336806 -.00065654  00000+0 -44153-3 0  9994
2 67584  97.2846 110.2192 0001044  98.6736 340.3354 15.75251230  5145
STARLINK-36560          
1 67585U 26016AA  26050.11574487  .00520222  00000+0  25312-2 0  9993
2 67585  97.2824 109.7488 0001797 151.8466 208.2900 15.81047470  3884
NAVSTAR 85 (USA 581)    
1 67588U 26017A   26048.53936881  .00000028  00000+0  00000+0 0  9991
2 67588  55.0081  93.5564 0000946  45.2724 314.8210  2.00561228429213
STARLINK-36641          
1 67589U 26018A   26050.51518832  .00215588  00000+0  14076-2 0  9996
2 67589  97.2831 115.3784 0001433 147.5318 212.6035 15.75230615  4442
STARLINK-36376          
1 67590U 26018B   26050.58336806  .00009647  00000+0  65475-4 0  9992
2 67590  97.2837 115.4933 0001296 101.2284  27.2591 15.75189710  4483
STARLINK-36391          
1 67591U 26018C   26050.55349846  .00120867  00000+0  62224-3 0  9994
2 67591  97.2838 115.4794 0000842 151.4102 208.7212 15.80844773  4458
STARLINK-36603          
1 67592U 26018D   26050.58336806 -.00016663  00000+0 -11102-3 0  9999
2 67592  97.2839 115.5033 0001253 101.5156  50.9694 15.75199217  4449
STARLINK-36634          
1 67593U 26018E   26050.55160277  .00117501  00000+0  60517-3 0  9999
2 67593  97.2841 115.4820 0001139  85.6581 274.4817 15.80844559  4456
