CCSDS_OMM_VERS = 2.0
CREATION_DATE  = 
ORIGINATOR     = 

OBJECT_NAME    = STARLINK-36612
OBJECT_ID      = 2026-016V
CENTER_NAME    = EARTH
REF_FRAME      = TEME
TIME_SYSTEM    = UTC
MEAN_ELEMENT_THEORY = SGP/SGP4

EPOCH          = 2026-02-19T02:57:01.784448
MEAN_MOTION    = 15.81041087
ECCENTRICITY   = .00022445
INCLINATION    = 97.2821
RA_OF_ASC_NODE = 109.7386
ARG_OF_PERICENTER = 147.8467
MEAN_ANOMALY   = 212.2938

EPHEMERIS_TYPE = 0
CLASSIFICATION_TYPE = U
NORAD_CAT_ID   = 67580
ELEMENT_SET_NO = 999
REV_AT_EPOCH   = 388
BSTAR          = .24824201E-2
MEAN_MOTION_DOT = .50939E-2
MEAN_MOTION_DDOT = 0

CCSDS_OMM_VERS = 2.0
CREATION_DATE  = 
ORIGINATOR     = 

OBJECT_NAME    = STARLINK-36632
OBJECT_ID      = 2026-016W
CENTER_NAME    = EARTH
REF_FRAME      = TEME
TIME_SYSTEM    = UTC
MEAN_ELEMENT_THEORY = SGP/SGP4

EPOCH          = 2026-02-19T12:31:23.795616
MEAN_MOTION    = 15.75320153
ECCENTRICITY   = .00022029
INCLINATION    = 97.2836
RA_OF_ASC_NODE = 110.1153
ARG_OF_PERICENTER = 30.9994
MEAN_ANOMALY   = 329.1401

EPHEMERIS_TYPE = 0
CLASSIFICATION_TYPE = U
NORAD_CAT_ID   = 67581
ELEMENT_SET_NO = 999
REV_AT_EPOCH   = 394
BSTAR          = .26372986E-2
MEAN_MOTION_DOT = .415315E-2
MEAN_MOTION_DDOT = 0

CCSDS_OMM_VERS = 2.0
CREATION_DATE  = 
ORIGINATOR     = 

OBJECT_NAME    = STARLINK-36609
OBJECT_ID      = 2026-016X
CENTER_NAME    = EARTH
REF_FRAME      = TEME
TIME_SYSTEM    = UTC
MEAN_ELEMENT_THEORY = SGP/SGP4

EPOCH          = 2026-02-19T14:25:44.563008
MEAN_MOTION    = 15.75244962
ECCENTRICITY   = .00014655
INCLINATION    = 97.2840
RA_OF_ASC_NODE = 110.1592
ARG_OF_PERICENTER = 82.6668
MEAN_ANOMALY   = 277.4764

EPHEMERIS_TYPE = 0
CLASSIFICATION_TYPE = U
NORAD_CAT_ID   = 67582
ELEMENT_SET_NO = 999
REV_AT_EPOCH   = 395
BSTAR          = .13817182E-2
MEAN_MOTION_DOT = .211654E-2
MEAN_MOTION_DDOT = 0

CCSDS_OMM_VERS = 2.0
CREATION_DATE  = 
ORIGINATOR     = 

OBJECT_NAME    = STARLINK-36577
OBJECT_ID      = 2026-016Y
CENTER_NAME    = EARTH
REF_FRAME      = TEME
TIME_SYSTEM    = UTC
MEAN_ELEMENT_THEORY = SGP/SGP4

EPOCH          = 2026-02-19T02:54:54.327168
MEAN_MOTION    = 15.80879015
ECCENTRICITY   = .00007722
INCLINATION    = 97.2825
RA_OF_ASC_NODE = 109.7403
ARG_OF_PERICENTER = 346.8280
MEAN_ANOMALY   = 13.2968

EPHEMERIS_TYPE = 0
CLASSIFICATION_TYPE = U
NORAD_CAT_ID   = 67583
ELEMENT_SET_NO = 999
REV_AT_EPOCH   = 388
BSTAR          = .10889385E-2
MEAN_MOTION_DOT = .21426E-2
MEAN_MOTION_DDOT = 0

CCSDS_OMM_VERS = 2.0
CREATION_DATE  = 
ORIGINATOR     = 

OBJECT_NAME    = STARLINK-36419
OBJECT_ID      = 2026-016Z
CENTER_NAME    = EARTH
REF_FRAME      = TEME
TIME_SYSTEM    = UTC
MEAN_ELEMENT_THEORY = SGP/SGP4

EPOCH          = 2026-02-19T14:00:03.000384
MEAN_MOTION    = 15.75251230
ECCENTRICITY   = .00010448
INCLINATION    = 97.2846
RA_OF_ASC_NODE = 110.2192
ARG_OF_PERICENTER = 98.6736
MEAN_ANOMALY   = 340.3354

EPHEMERIS_TYPE = 0
CLASSIFICATION_TYPE = U
NORAD_CAT_ID   = 67584
ELEMENT_SET_NO = 999
REV_AT_EPOCH   = 514
BSTAR          = -.44152772E-3
MEAN_MOTION_DOT = -.65654E-3
MEAN_MOTION_DDOT = 0

CCSDS_OMM_VERS = 2.0
CREATION_DATE  = 
ORIGINATOR     = 

OBJECT_NAME    = STARLINK-36560
OBJECT_ID      = 2026-016AA
CENTER_NAME    = EARTH
REF_FRAME      = TEME
TIME_SYSTEM    = UTC
MEAN_ELEMENT_THEORY = SGP/SGP4

EPOCH          = 2026-02-19T02:46:40.356768
MEAN_MOTION    = 15.81047470
ECCENTRICITY   = .00017977
INCLINATION    = 97.2824
RA_OF_ASC_NODE = 109.7488
ARG_OF_PERICENTER = 151.8466
MEAN_ANOMALY   = 208.2900

EPHEMERIS_TYPE = 0
CLASSIFICATION_TYPE = U
NORAD_CAT_ID   = 67585
ELEMENT_SET_NO = 999
REV_AT_EPOCH   = 388
BSTAR          = .25312051E-2
MEAN_MOTION_DOT = .520222E-2
MEAN_MOTION_DDOT = 0

CCSDS_OMM_VERS = 2.0
CREATION_DATE  = 
ORIGINATOR     = 

OBJECT_NAME    = NAVSTAR 85 (USA 581)
OBJECT_ID      = 2026-017A
CENTER_NAME    = EARTH
REF_FRAME      = TEME
TIME_SYSTEM    = UTC
MEAN_ELEMENT_THEORY = SGP/SGP4

EPOCH          = 2026-02-17T12:56:41.465184
MEAN_MOTION    = 2.00561228
ECCENTRICITY   = .0000946
INCLINATION    = 55.0081
RA_OF_ASC_NODE = 93.5564
ARG_OF_PERICENTER = 45.2724
MEAN_ANOMALY   = 314.8210

EPHEMERIS_TYPE = 0
CLASSIFICATION_TYPE = U
NORAD_CAT_ID   = 67588
ELEMENT_SET_NO = 999
REV_AT_EPOCH   = 42921
BSTAR          = 0
MEAN_MOTION_DOT = .28E-6
MEAN_MOTION_DDOT = 0

CCSDS_OMM_VERS = 2.0
CREATION_DATE  = 
ORIGINATOR     = 

OBJECT_NAME    = STARLINK-36641
OBJECT_ID      = 2026-018A
CENTER_NAME    = EARTH
REF_FRAME      = TEME
TIME_SYSTEM    = UTC
MEAN_ELEMENT_THEORY = SGP/SGP4

EPOCH          = 2026-02-19T12:21:52.270848
MEAN_MOTION    = 15.75230615
ECCENTRICITY   = .00014338
INCLINATION    = 97.2831
RA_OF_ASC_NODE = 115.3784
ARG_OF_PERICENTER = 147.5318
MEAN_ANOMALY   = 212.6035

EPHEMERIS_TYPE = 0
CLASSIFICATION_TYPE = U
NORAD_CAT_ID   = 67589
ELEMENT_SET_NO = 999
REV_AT_EPOCH   = 444
BSTAR          = .14076088E-2
MEAN_MOTION_DOT = .215588E-2
MEAN_MOTION_DDOT = 0

CCSDS_OMM_VERS = 2.0
CREATION_DATE  = 
ORIGINATOR     = 

OBJECT_NAME    = STARLINK-36376
OBJECT_ID      = 2026-018B
CENTER_NAME    = EARTH
REF_FRAME      = TEME
TIME_SYSTEM    = UTC
MEAN_ELEMENT_THEORY = SGP/SGP4

EPOCH          = 2026-02-19T14:00:03.000384
MEAN_MOTION    = 15.75189710
ECCENTRICITY   = .00012966
INCLINATION    = 97.2837
RA_OF_ASC_NODE = 115.4933
ARG_OF_PERICENTER = 101.2284
MEAN_ANOMALY   = 27.2591

EPHEMERIS_TYPE = 0
CLASSIFICATION_TYPE = U
NORAD_CAT_ID   = 67590
ELEMENT_SET_NO = 999
REV_AT_EPOCH   = 448
BSTAR          = .65474949E-4
MEAN_MOTION_DOT = .9647E-4
MEAN_MOTION_DDOT = 0

CCSDS_OMM_VERS = 2.0
CREATION_DATE  = 
ORIGINATOR     = 

OBJECT_NAME    = STARLINK-36391
OBJECT_ID      = 2026-018C
CENTER_NAME    = EARTH
REF_FRAME      = TEME
TIME_SYSTEM    = UTC
MEAN_ELEMENT_THEORY = SGP/SGP4

EPOCH          = 2026-02-19T13:17:02.266944
MEAN_MOTION    = 15.80844773
ECCENTRICITY   = .00008421
INCLINATION    = 97.2838
RA_OF_ASC_NODE = 115.4794
ARG_OF_PERICENTER = 151.4102
MEAN_ANOMALY   = 208.7212

EPHEMERIS_TYPE = 0
CLASSIFICATION_TYPE = U
NORAD_CAT_ID   = 67591
ELEMENT_SET_NO = 999
REV_AT_EPOCH   = 445
BSTAR          = .62223602E-3
MEAN_MOTION_DOT = .120867E-2
MEAN_MOTION_DDOT = 0

CCSDS_OMM_VERS = 2.0
CREATION_DATE  = 
ORIGINATOR     = 

OBJECT_NAME    = STARLINK-36603
OBJECT_ID      = 2026-018D
CENTER_NAME    = EARTH
REF_FRAME      = TEME
TIME_SYSTEM    = UTC
MEAN_ELEMENT_THEORY = SGP/SGP4

EPOCH          = 2026-02-19T14:00:03.000384
MEAN_MOTION    = 15.75199217
ECCENTRICITY   = .00012533
INCLINATION    = 97.2839
RA_OF_ASC_NODE = 115.5033
ARG_OF_PERICENTER = 101.5156
MEAN_ANOMALY   = 50.9694

EPHEMERIS_TYPE = 0
CLASSIFICATION_TYPE = U
NORAD_CAT_ID   = 67592
ELEMENT_SET_NO = 999
REV_AT_EPOCH   = 444
BSTAR          = -.11101738E-3
MEAN_MOTION_DOT = -.16663E-3
MEAN_MOTION_DDOT = 0

CCSDS_OMM_VERS = 2.0
CREATION_DATE  = 
ORIGINATOR     = 

OBJECT_NAME    = STARLINK-36634
OBJECT_ID      = 2026-018E
CENTER_NAME    = EARTH
REF_FRAME      = TEME
TIME_SYSTEM    = UTC
MEAN_ELEMENT_THEORY = SGP/SGP4

EPOCH          = 2026-02-19T13:14:18.479328
MEAN_MOTION    = 15.80844559
ECCENTRICITY   = .00011392
INCLINATION    = 97.2841
RA_OF_ASC_NODE = 115.4820
ARG_OF_PERICENTER = 85.6581
MEAN_ANOMALY   = 274.4817

EPHEMERIS_TYPE = 0
CLASSIFICATION_TYPE = U
NORAD_CAT_ID   = 67593
ELEMENT_SET_NO = 999
REV_AT_EPOCH   = 445
BSTAR          = .6051653E-3
MEAN_MOTION_DOT = .117501E-2
MEAN_MOTION_DDOT = 0

